[{"OBJECT_NAME":"GEESAT-2 07","OBJECT_ID":"2024-023G","EPOCH":"2026-03-09T22:31:13.906560","MEAN_MOTION":14.82879957,"ECCENTRICITY":0.00101218,"INCLINATION":50.0054,"RA_OF_ASC_NODE":94.2079,"ARG_OF_PERICENTER":37.2132,"MEAN_ANOMALY":322.9506,"EPHEMERIS_TYPE":0,"CLASSIFICATION_TYPE":"U","NORAD_CAT_ID":58911,"ELEMENT_SET_NO":999,"REV_AT_EPOCH":11418,"BSTAR":0.00018036206,"MEAN_MOTION_DOT":1.251e-5,"MEAN_MOTION_DDOT":0},{"OBJECT_NAME":"ELECTRON KICK STAGE R\/B","OBJECT_ID":"2023-126B","EPOCH":"2026-03-09T21:35:26.329056","MEAN_MOTION":14.84146449,"ECCENTRICITY":0.00101755,"INCLINATION":53.007,"RA_OF_ASC_NODE":244.8734,"ARG_OF_PERICENTER":97.4688,"MEAN_ANOMALY":262.7447,"EPHEMERIS_TYPE":0,"CLASSIFICATION_TYPE":"U","NORAD_CAT_ID":57694,"ELEMENT_SET_NO":999,"REV_AT_EPOCH":13754,"BSTAR":0.00041472066,"MEAN_MOTION_DOT":3.269e-5,"MEAN_MOTION_DDOT":0}]
